OBJECT_NAME,OBJECT_ID,EPOCH,MEAN_MOTION,ECCENTRICITY,INCLINATION,RA_OF_ASC_NODE,ARG_OF_PERICENTER,MEAN_ANOMALY,EPHEMERIS_TYPE,CLASSIFICATION_TYPE,NORAD_CAT_ID,ELEMENT_SET_NO,REV_AT_EPOCH,BSTAR,MEAN_MOTION_DOT,MEAN_MOTION_DDOT
KUIPER-00533,2026-140P,2026-07-07T11:09:30.408192,15.38138607,.00078154,51.8780,300.6222,296.8587,63.1601,0,U,69605,999,435,.51627459E-3,.19363E-3,0
KUIPER-00534,2026-140Q,2026-07-07T10:44:36.235104,15.38651071,.00133862,51.8818,300.5184,237.6888,122.2804,0,U,69606,999,435,.56285394E-3,.21554E-3,0
KUIPER-00537,2026-140R,2026-07-07T12:00:02.999808,15.34365188,.00102436,51.8815,300.8149,30.9854,349.8372,0,U,69607,999,403,-.7424079E-3,-.25423E-3,0
KUIPER-00538,2026-140S,2026-07-07T11:20:56.854464,15.37606341,.00060777,51.8808,300.6804,312.9647,47.0830,0,U,69608,999,435,.54413124E-3,.20069E-3,0
KUIPER-00540,2026-140T,2026-07-07T11:32:35.102976,15.36843088,.00061526,51.8812,300.7338,358.2744,1.8221,0,U,69609,999,435,.41938219E-3,.14986E-3,0
KUIPER-00541,2026-140U,2026-07-07T11:10:01.385184,15.38283396,.00066216,51.8814,300.6346,291.7301,68.2981,0,U,69610,999,435,.46826794E-3,.17601E-3,0
KUIPER-00542,2026-140V,2026-07-07T11:07:35.493600,15.38264894,.00078562,51.8783,300.6142,273.5964,86.4125,0,U,69611,999,435,.45386793E-3,.1704E-3,0
KUIPER-00543,2026-140W,2026-07-07T11:38:13.649280,15.36715957,.00075126,51.8788,300.7497,11.3158,348.7996,0,U,69612,999,435,.46478378E-3,.16589E-3,0
KUIPER-00544,2026-140X,2026-07-07T11:13:00.720480,15.38053424,.00064532,51.8777,300.6389,289.4670,70.5619,0,U,69613,999,435,.90541839E-3,.3422E-3,0
KUIPER-00546,2026-140Y,2026-07-07T10:46:14.387232,15.38800284,.00142893,51.8782,300.5212,233.3223,126.6451,0,U,69614,999,435,.5439533E-3,.20927E-3,0
KUIPER-00547,2026-140Z,2026-07-07T11:02:41.362944,15.37757338,.00117658,51.8824,300.6021,264.5782,95.3863,0,U,69615,999,435,.54440676E-3,.20211E-3,0
KUIPER-00549,2026-140AA,2026-07-07T11:28:09.112800,15.37279545,.00071889,51.8783,300.7061,349.0865,10.9965,0,U,69616,999,435,.43584365E-3,.15819E-3,0
KUIPER-00550,2026-140AB,2026-07-07T12:00:02.999808,15.33392330,.00075996,51.8804,300.8886,24.7472,316.4253,0,U,69617,999,360,-.68544371E-3,-.22784E-3,0
KUIPER-00551,2026-140AC,2026-07-07T12:27:42.832800,15.38104053,.00124084,51.8793,300.2412,249.2492,110.7166,0,U,69618,999,436,.32214079E-3,.11923E-3,0
KUIPER-00554,2026-140AD,2026-07-07T11:00:26.578944,15.37950269,.00096804,51.8782,300.5831,245.4673,114.5305,0,U,69619,999,435,.15006144E-2,.57001E-3,0
KUIPER-00555,2026-140AE,2026-07-07T10:56:45.669696,15.38000128,.00114571,51.8814,300.5716,249.1340,110.8421,0,U,69620,999,435,.4644861E-3,.17315E-3,0
KUIPER-00556,2026-140AF,2026-07-07T10:57:31.265568,15.38197827,.00118466,51.8803,300.5748,237.2140,122.7706,0,U,69621,999,435,.54406193E-3,.20495E-3,0
KUIPER-00557,2026-140AG,2026-07-07T11:05:57.395904,15.37427827,.00098845,51.8806,300.6138,268.5951,91.3904,0,U,69622,999,435,.49861048E-3,.18262E-3,0
KUIPER-00560,2026-140AH,2026-07-07T11:00:31.190976,15.38642037,.00108525,51.8783,300.5843,264.8895,95.0853,0,U,69623,999,435,-.13157245E-2,-.51188E-3,0
KUIPER-00561,2026-140AJ,2026-07-07T11:03:37.317312,15.38585864,.00077121,51.8819,300.6057,275.4454,84.5653,0,U,69624,999,435,.54789382E-3,.20883E-3,0
KUIPER-00564,2026-140AK,2026-07-07T12:00:02.999808,15.37182469,.00093034,51.8808,300.3832,268.3799,323.7111,0,U,69625,999,360,-.33728706E-3,-.12865E-3,0
KUIPER-00567,2026-140AL,2026-07-07T10:54:17.007264,15.38359307,.0012559,51.8783,300.5568,239.2805,120.6945,0,U,69626,999,435,.60878045E-3,.23118E-3,0
KUIPER-00573,2026-140AM,2026-07-07T11:10:45.145920,15.37323236,.00096052,51.8782,300.6296,255.6913,104.3008,0,U,69627,999,435,.67313577E-3,.24727E-3,0
KZ-11 R/B,2026-138H,2026-07-07T07:43:36.716736,15.34374252,.04113864,55.1550,192.8777,129.7956,234.0062,0,U,69628,999,303,.75098237E-3,.711955E-2,.9619999E-5
ZHUQUE-2E DEB,2026-128D,2026-07-07T13:34:26.748768,15.76295846,.00491739,54.5324,206.7071,17.8408,342.4343,0,U,69629,999,439,.1139832E-2,.20156E-2,0
ZHUQUE-2E DEB,2026-128E,2026-07-07T02:29:17.070720,15.58636196,.00783615,54.5280,210.6923,26.6398,333.8626,0,U,69630,999,428,.15196816E-3,.13165E-3,0
ZHUQUE-2E DEB,2026-128F,2026-07-07T14:42:10.232352,15.67424881,.0061539,54.5240,207.6373,20.4462,339.9016,0,U,69631,999,437,.14448947E-2,.179766E-2,0
ZHUQUE-2E DEB,2026-128J,2026-07-07T11:42:56.768256,16.17474157,.00286147,54.5137,204.7279,55.3867,304.9882,0,U,69634,999,428,.40352954E-2,.7160937E-1,.11691641E-4
CENTISPACE-1 GROUP 05 OBJECT J,2026-138J,2026-07-07T13:04:33.744000,14.15844622,.0009041,55.1385,205.9508,327.4325,32.6091,0,U,69636,999,287,-.12882804E-3,-.408E-5,0
VICTUS HAZE PUMA,2026-142A,2026-07-07T14:42:41.186016,15.20811324,.00252152,97.4473,86.0040,294.1906,65.6694,0,U,69646,999,277,.13599791E-3,.2952E-4,0
